[{"OBJECT_NAME":"OBJECT BC","OBJECT_ID":"2025-313BC","EPOCH":"2026-03-09T04:33:08.504064","MEAN_MOTION":15.29126358,"ECCENTRICITY":0.00084789,"INCLINATION":97.3985,"RA_OF_ASC_NODE":144.811,"ARG_OF_PERICENTER":328.9209,"MEAN_ANOMALY":31.1528,"EPHEMERIS_TYPE":0,"CLASSIFICATION_TYPE":"U","NORAD_CAT_ID":67298,"ELEMENT_SET_NO":999,"REV_AT_EPOCH":789,"BSTAR":0.0026410397,"MEAN_MOTION_DOT":0.00075331,"MEAN_MOTION_DDOT":0},{"OBJECT_NAME":"STARLINK-36483","OBJECT_ID":"2026-002AB","EPOCH":"2026-03-09T02:05:19.096512","MEAN_MOTION":15.27577963,"ECCENTRICITY":0.00015101,"INCLINATION":43.0008,"RA_OF_ASC_NODE":328.9343,"ARG_OF_PERICENTER":287.9973,"MEAN_ANOMALY":72.0714,"EPHEMERIS_TYPE":0,"CLASSIFICATION_TYPE":"U","NORAD_CAT_ID":67330,"ELEMENT_SET_NO":999,"REV_AT_EPOCH":1114,"BSTAR":0.0012629296,"MEAN_MOTION_DOT":0.00034652,"MEAN_MOTION_DDOT":0}]
