2025-313BC              
1 67298U 25313BC  26068.18968176  .00075331  00000+0  26410-2 0  9997
2 67298  97.3985 144.8110 0008478 328.9209  31.1528 15.29126358  7890
STARLINK-36483          
1 67330U 26002AB  26068.08702658  .00034652  00000+0  12629-2 0  9998
2 67330  43.0008 328.9343 0001510 287.9973  72.0714 15.27577963 11140
